OBJECT_NAME,OBJECT_ID,EPOCH,MEAN_MOTION,ECCENTRICITY,INCLINATION,RA_OF_ASC_NODE,ARG_OF_PERICENTER,MEAN_ANOMALY,EPHEMERIS_TYPE,CLASSIFICATION_TYPE,NORAD_CAT_ID,ELEMENT_SET_NO,REV_AT_EPOCH,BSTAR,MEAN_MOTION_DOT,MEAN_MOTION_DDOT
INTELSAT 23 (IS-23),2012-057A,2026-07-19T06:04:54.466752,1.00276653,.00003624,0.0170,5.2080,122.0867,207.9463,0,U,38867,999,5027,0,-.29E-5,0
BEIDOU-2 G6,2012-059A,2026-07-19T01:35:59.780832,1.00273190,.00088517,4.5005,73.1785,327.5390,4.1506,0,U,38953,999,5022,0,-.183E-5,0
LUCH-5B,2012-061A,2026-07-18T08:01:00.263712,1.00270293,.00038352,10.5496,49.5701,147.0481,203.4789,0,U,38977,999,4991,0,-.149E-5,0
YAMAL 300K,2012-061B,2026-07-19T06:57:04.436352,1.00270419,.00001693,0.0122,227.9258,267.9140,88.4601,0,U,38978,999,4995,0,.66E-6,0
STAR ONE C3,2012-062A,2026-07-19T05:38:38.540256,1.00272566,.00023016,0.0175,60.9529,63.8429,181.9023,0,U,38991,999,5008,0,-.254E-5,0
EUTELSAT 21B,2012-062B,2026-07-19T06:26:07.433376,1.00272976,.00032389,0.0683,343.1651,142.2797,289.7078,0,U,38992,999,5014,0,.125E-5,0
ECHOSTAR 16,2012-065A,2026-07-19T01:23:38.851584,1.00271592,.00021174,0.0200,54.0924,61.1243,141.0431,0,U,39008,999,4996,0,-.288E-5,0
ZHONGXING-12,2012-067A,2026-07-19T02:57:21.702240,1.00271126,.00026602,0.0436,96.0668,17.5391,315.1417,0,U,39017,999,4982,0,-.212E-5,0
EUTELSAT 70B,2012-069A,2026-07-19T04:57:28.551744,1.00271731,.00035852,0.0618,9.8566,107.8027,324.1995,0,U,39020,999,4983,0,-.49E-6,0
YAMAL 402,2012-070A,2026-07-19T04:52:36.518880,1.00271828,.00037394,1.3450,83.7601,27.2864,313.9849,0,U,39022,999,4971,0,.8E-6,0
SKYNET 5D,2012-075A,2026-07-19T04:52:21.543168,1.00272214,.00035796,0.0683,6.8171,118.9468,297.0573,0,U,39034,999,4947,0,.94E-6,0
MEXSAT 3,2012-075B,2026-07-19T05:19:38.637408,1.00271095,.00011409,0.0192,62.1838,48.9367,150.9964,0,U,39035,999,737,0,-.31E-6,0
TDRS 11,2013-004A,2026-07-19T05:59:38.845824,1.00264621,.00054451,3.5675,31.7542,29.8278,151.2054,0,U,39070,999,4701,0,.73E-6,0
AMAZONAS 3,2013-006A,2026-07-19T06:02:39.681888,1.00271392,.00035437,0.0464,217.5843,293.7646,175.3535,0,U,39078,999,4523,0,-.287E-5,0
AZERSPACE 1,2013-006B,2026-07-19T04:50:29.222304,1.00272453,.0001938,0.0192,48.9373,100.6163,266.0340,0,U,39079,999,4912,0,.128E-5,0
SBIRS GEO-2 (USA 241),2013-011A,2026-07-19T01:23:38.851584,1.00271519,.00019567,4.5559,52.5022,59.7117,155.7524,0,U,39120,999,4885,0,-.294E-5,0
EUTELSAT 117 WEST A,2013-012A,2026-07-19T06:56:16.817856,1.00271174,.0002833,0.0409,274.0144,202.8738,167.4492,0,U,39122,999,4875,0,-.18E-6,0
ANIK G1,2013-014A,2026-07-19T04:06:46.069920,1.00272024,.0001849,0.0360,249.5559,236.0199,125.7713,0,U,39127,999,4857,0,-.79E-6,0
ZHONGXING-11,2013-020A,2026-07-19T03:22:28.940736,1.00273767,.00021795,0.0477,273.1731,164.7780,7.4835,0,U,39157,999,4822,0,-.296E-5,0
EUTELSAT 7B,2013-022A,2026-07-19T06:22:00.327648,1.00270847,.00032364,0.0666,346.4742,62.8426,350.2250,0,U,39163,999,4826,0,.43E-6,0
WGS F5 (USA 243),2013-024A,2026-07-19T06:05:01.955040,1.00267862,.00001458,0.0203,66.4087,167.4198,101.9821,0,U,39168,999,4749,0,0,0
SES-6,2013-026A,2026-07-19T06:08:31.620192,1.00272051,.00026773,0.0170,5.0932,93.5252,250.0655,0,U,39172,999,4804,0,-.266E-5,0
IRNSS-1A,2013-034A,2026-07-10T17:17:25.712736,1.00281941,.0017567,35.7704,63.5328,183.4462,356.2994,0,U,39199,999,4760,0,.47E-6,0
MUOS-2,2013-036A,2026-07-19T07:47:14.600256,1.00273086,.00530366,5.0573,45.5540,176.3899,3.9483,0,U,39206,999,4751,0,-.2E-6,0
ALPHASAT,2013-038A,2026-07-19T06:27:07.337088,1.00274260,.00025396,2.9995,1.1779,137.8809,279.6477,0,U,39215,999,4434,0,.128E-5,0
INSAT-3D,2013-038B,2026-07-19T05:14:19.436064,1.00274238,.00009786,2.0071,82.1413,44.6827,18.2505,0,U,39216,999,4740,0,-.345E-5,0
WGS F6 (USA 244),2013-041A,2026-07-19T05:41:29.016096,1.00271779,.00002227,0.0185,54.8804,53.3331,138.9874,0,U,39222,999,4638,0,.84E-6,0
ES'HAIL 1,2013-044A,2026-07-19T06:27:14.825376,1.00270367,.00023186,0.0475,357.8950,111.2488,310.2138,0,U,39233,999,4694,0,.138E-5,0
GSAT-7,2013-044B,2026-07-19T03:42:21.759264,1.00271985,.00030622,0.1612,89.5046,175.2387,161.7457,0,U,39234,999,4557,0,-.82E-6,0
AMOS-4,2013-045A,2026-07-19T03:42:21.759264,1.00271405,.00020302,0.0032,281.2173,158.4573,337.8537,0,U,39237,999,4727,0,.2E-7,0
AEHF-3 (USA 246),2013-050A,2026-07-19T06:53:30.910848,1.00272107,.00885668,5.3702,66.8866,187.7214,21.5696,0,U,39256,999,4597,0,.22E-6,0
ASTRA 2E,2013-056A,2026-07-19T06:28:07.241664,1.00270940,.00025938,0.0700,319.5370,154.2568,308.7513,0,U,39285,999,4673,0,.145E-5,0
