INTELSAT 23 (IS-23)     
1 38867U 12057A   26200.25340818 -.00000290  00000+0  00000+0 0  9998
2 38867   0.0170   5.2080 0000362 122.0867 207.9463  1.00276653 50279
BEIDOU-2 G6             
1 38953U 12059A   26200.06666413 -.00000183  00000+0  00000+0 0  9998
2 38953   4.5005  73.1785 0008851 327.5390   4.1506  1.00273190 50224
LUCH-5B                 
1 38977U 12061A   26199.33403083 -.00000149  00000+0  00000+0 0  9998
2 38977  10.5496  49.5701 0003835 147.0481 203.4789  1.00270293 49911
YAMAL 300K              
1 38978U 12061B   26200.28963468  .00000066  00000+0  00000+0 0  9991
2 38978   0.0122 227.9258 0000169 267.9140  88.4601  1.00270419 49950
STAR ONE C3             
1 38991U 12062A   26200.23516829 -.00000254  00000+0  00000+0 0  9997
2 38991   0.0175  60.9529 0002301  63.8429 181.9023  1.00272566 50080
EUTELSAT 21B            
1 38992U 12062B   26200.26814159  .00000125  00000+0  00000+0 0  9994
2 38992   0.0683 343.1651 0003238 142.2797 289.7078  1.00272976 50146
ECHOSTAR 16             
1 39008U 12065A   26200.05808856 -.00000288  00000+0  00000+0 0  9991
2 39008   0.0200  54.0924 0002117  61.1243 141.0431  1.00271592 49965
ZHONGXING-12            
1 39017U 12067A   26200.12316785 -.00000212  00000+0  00000+0 0  9993
2 39017   0.0436  96.0668 0002660  17.5391 315.1417  1.00271126 49825
EUTELSAT 70B            
1 39020U 12069A   26200.20658046 -.00000049  00000+0  00000+0 0  9995
2 39020   0.0618   9.8566 0003585 107.8027 324.1995  1.00271731 49830
YAMAL 402               
1 39022U 12070A   26200.20320045  .00000080  00000+0  00000+0 0  9998
2 39022   1.3450  83.7601 0003739  27.2864 313.9849  1.00271828 49714
SKYNET 5D               
1 39034U 12075A   26200.20302712  .00000094  00000+0  00000+0 0  9992
2 39034   0.0683   6.8171 0003579 118.9468 297.0573  1.00272214 49478
MEXSAT 3                
1 39035U 12075B   26200.22197497 -.00000031  00000+0  00000+0 0  9999
2 39035   0.0192  62.1838 0001140  48.9367 150.9964  1.00271095  7371
TDRS 11                 
1 39070U 13004A   26200.24975516  .00000073  00000+0  00000+0 0  9994
2 39070   3.5675  31.7542 0005445  29.8278 151.2054  1.00264621 47015
AMAZONAS 3              
1 39078U 13006A   26200.25184817 -.00000287  00000+0  00000+0 0  9999
2 39078   0.0464 217.5843 0003543 293.7646 175.3535  1.00271392 45233
AZERSPACE 1             
1 39079U 13006B   26200.20172711  .00000128  00000+0  00000+0 0  9998
2 39079   0.0192  48.9373 0001938 100.6163 266.0340  1.00272453 49125
SBIRS GEO-2 (USA 241)   
1 39120U 13011A   26200.05808856 -.00000294  00000+0  00000+0 0  9995
2 39120   4.5559  52.5022 0001956  59.7117 155.7524  1.00271519 48852
EUTELSAT 117 WEST A     
1 39122U 13012A   26200.28908354 -.00000018  00000+0  00000+0 0  9991
2 39122   0.0409 274.0144 0002833 202.8738 167.4492  1.00271174 48750
ANIK G1                 
1 39127U 13014A   26200.17136655 -.00000079  00000+0  00000+0 0  9990
2 39127   0.0360 249.5559 0001849 236.0199 125.7713  1.00272024 48572
ZHONGXING-11            
1 39157U 13020A   26200.14061274 -.00000296  00000+0  00000+0 0  9992
2 39157   0.0477 273.1731 0002179 164.7780   7.4835  1.00273767 48227
EUTELSAT 7B             
1 39163U 13022A   26200.26528157  .00000043  00000+0  00000+0 0  9991
2 39163   0.0666 346.4742 0003236  62.8426 350.2250  1.00270847 48260
WGS F5 (USA 243)        
1 39168U 13024A   26200.25349485  .00000000  00000+0  00000+0 0  9995
2 39168   0.0203  66.4087 0000145 167.4198 101.9821  1.00267862 47499
SES-6                   
1 39172U 13026A   26200.25592153 -.00000266  00000+0  00000+0 0  9999
2 39172   0.0170   5.0932 0002677  93.5252 250.0655  1.00272051 48046
IRNSS-1A                
1 39199U 13034A   26191.72043649  .00000047  00000+0  00000+0 0  9995
2 39199  35.7704  63.5328 0017567 183.4462 356.2994  1.00281941 47601
MUOS-2                  
1 39206U 13036A   26200.32447454 -.00000020  00000+0  00000+0 0  9997
2 39206   5.0573  45.5540 0053036 176.3899   3.9483  1.00273086 47516
ALPHASAT                
1 39215U 13038A   26200.26883492  .00000128  00000+0  00000+0 0  9996
2 39215   2.9995   1.1779 0002539 137.8809 279.6477  1.00274260 44345
INSAT-3D                
1 39216U 13038B   26200.21828051 -.00000345  00000+0  00000+0 0  9994
2 39216   2.0071  82.1413 0000978  44.6827  18.2505  1.00274238 47400
WGS F6 (USA 244)        
1 39222U 13041A   26200.23714139  .00000084  00000+0  00000+0 0  9997
2 39222   0.0185  54.8804 0000222  53.3331 138.9874  1.00271779 46382
ES'HAIL 1               
1 39233U 13044A   26200.26892159  .00000138  00000+0  00000+0 0  9994
2 39233   0.0475 357.8950 0002318 111.2488 310.2138  1.00270367 46941
GSAT-7                  
1 39234U 13044B   26200.15441851 -.00000082  00000+0  00000+0 0  9991
2 39234   0.1612  89.5046 0003062 175.2387 161.7457  1.00271985 45574
AMOS-4                  
1 39237U 13045A   26200.15441851  .00000002  00000+0  00000+0 0  9996
2 39237   0.0032 281.2173 0002030 158.4573 337.8537  1.00271405 47279
AEHF-3 (USA 246)        
1 39256U 13050A   26200.28716332  .00000022  00000+0  00000+0 0  9998
2 39256   5.3702  66.8866 0088566 187.7214  21.5696  1.00272107 45971
ASTRA 2E                
1 39285U 13056A   26200.26952826  .00000145  00000+0  00000+0 0  9990
2 39285   0.0700 319.5370 0002593 154.2568 308.7513  1.00270940 46734
